{
  "type": "FeatureCollection",
  "features": [
    {
      "type": "Feature",
      "properties": {
        "event": "chao_phraya_2022",
        "source": "fixture/GISTDA-D3 (STAC unreachable)",
        "layer_date": "2022-10-10"
      },
      "geometry": {
        "type": "MultiPolygon",
        "coordinates": [
          [
            [
              [
                100.09,
                15.649999999999999
              ],
              [
                100.19,
                15.649999999999999
              ],
              [
                100.19,
                15.75
              ],
              [
                100.09,
                15.75
              ],
              [
                100.09,
                15.649999999999999
              ]
            ]
          ],
          [
            [
              [
                100.08,
                15.139999999999999
              ],
              [
                100.17999999999999,
                15.139999999999999
              ],
              [
                100.17999999999999,
                15.24
              ],
              [
                100.08,
                15.24
              ],
              [
                100.08,
                15.139999999999999
              ]
            ]
          ],
          [
            [
              [
                100.35000000000001,
                14.84
              ],
              [
                100.45,
                14.84
              ],
              [
                100.45,
                14.940000000000001
              ],
              [
                100.35000000000001,
                14.940000000000001
              ],
              [
                100.35000000000001,
                14.84
              ]
            ]
          ],
          [
            [
              [
                100.41,
                14.54
              ],
              [
                100.50999999999999,
                14.54
              ],
              [
                100.50999999999999,
                14.64
              ],
              [
                100.41,
                14.64
              ],
              [
                100.41,
                14.54
              ]
            ]
          ],
          [
            [
              [
                100.53,
                14.299999999999999
              ],
              [
                100.63,
                14.299999999999999
              ],
              [
                100.63,
                14.4
              ],
              [
                100.53,
                14.4
              ],
              [
                100.53,
                14.299999999999999
              ]
            ]
          ],
          [
            [
              [
                100.48,
                13.969999999999999
              ],
              [
                100.58,
                13.969999999999999
              ],
              [
                100.58,
                14.07
              ],
              [
                100.48,
                14.07
              ],
              [
                100.48,
                13.969999999999999
              ]
            ]
          ]
        ]
      }
    }
  ]
}